*******************************************************************************
JPL/HORIZONS                1098 Hakone (1928 RJ)          2023-Sep-04 11:10:11
Rec #:    1098 (+COV) Soln.date: 2023-Aug-21_14:14:28   # obs: 5632 (1906-2023)
 
IAU76/J2000 helio. ecliptic osc. elements (au, days, deg., period=Julian yrs):
 
  EPOCH=  2457407.5 ! 2016-Jan-20.00 (TDB)         Residual RMS= .23726
   EC= .1191061517583023   QR= 2.367795516802985   TP= 2457939.5149862329
   OM= 329.0086676925819   W=  80.9523306606303    IN= 13.3794436306824
   A= 2.687946477920362    MA= 241.0136849994689   ADIST= 3.008097439037738
   PER= 4.40696            N= .223652187           ANGMOM= .028002008
   DAN= 2.6011             DDN= 2.70039            L= 49.7129324
   B= 13.2099406           MOID= 1.42009997        TP= 2017-Jul-05.0149862329
 
Asteroid physical parameters (km, seconds, rotational period in hours):
   GM= n.a.                RAD= 13.342             ROTPER= 7.142
   H= 10.5                 G= .150                 B-V= n.a.
                           ALBEDO= .206            STYP= Xe

ASTEROID comments: 
1: soln ref.= JPL#65, OCC=0
2: source=ORB
*******************************************************************************


*******************************************************************************
Ephemeris / API_USER Mon Sep  4 11:10:11 2023 Pasadena, USA      / Horizons
*******************************************************************************
Target body name: 1098 Hakone (1928 RJ)           {source: JPL#65}
Center body name: Solar System Barycenter (0)     {source: DE441}
Center-site name: BODY CENTER
*******************************************************************************
Start time      : A.D. 2023-Aug-12 00:00:00.0000 TDB
Stop  time      : A.D. 2023-Aug-13 00:00:00.0000 TDB
Step-size       : 2880 minutes
*******************************************************************************
Center geodetic : 0.0, 0.0, 0.0                   {E-lon(deg),Lat(deg),Alt(km)}
Center cylindric: 0.0, 0.0, 0.0                   {E-lon(deg),Dxy(km),Dz(km)}
Center radii    : (undefined)
Small perturbers: Yes                             {source: SB441-N16}
Output units    : KM-S
Calendar mode   : Mixed Julian/Gregorian
Output type     : GEOMETRIC cartesian states
Output format   : 2 (position and velocity)
Reference frame : Ecliptic of J2000.0
*******************************************************************************
Initial IAU76/J2000 heliocentric ecliptic osculating elements (au, days, deg.):
  EPOCH=  2457407.5 ! 2016-Jan-20.00 (TDB)         Residual RMS= .23726        
   EC= .1191061517583023   QR= 2.367795516802985   TP= 2457939.5149862329      
   OM= 329.0086676925819   W=  80.9523306606303    IN= 13.3794436306824        
  Equivalent ICRF heliocentric cartesian coordinates (au, au/d):
   X= 5.241822828838749E-01  Y=-2.347712424004710E+00  Z=-1.564924693735208E+00
  VX= 9.346773297642857E-03 VY= 1.604419156917883E-03 VZ= 2.490600091353940E-03
Asteroid physical parameters (km, seconds, rotational period in hours):        
   GM= n.a.                RAD= 13.342             ROTPER= 7.142               
   H= 10.5                 G= .150                 B-V= n.a.                   
                           ALBEDO= .206            STYP= Xe                    
*******************************************************************************
JDTDB
   X     Y     Z
   VX    VY    VZ
*******************************************************************************
$$SOE
2460168.500000000 = A.D. 2023-Aug-12 00:00:00.0000 TDB 
 X =-4.185758912528439E+08 Y =-1.148645532558708E+08 Z =-7.463973390457332E+07
 VX= 3.624160758387565E+00 VY=-1.593989051054169E+01 VZ=-2.801203467045677E+00
$$EOE
*******************************************************************************
 
TIME

  Barycentric Dynamical Time ("TDB" or T_eph) output was requested. This
continuous coordinate time is equivalent to the relativistic proper time
of a clock at rest in a reference frame co-moving with the solar system
barycenter but outside the system's gravity well. It is the independent
variable in the solar system relativistic equations of motion.

  TDB runs at a uniform rate of one SI second per second and is independent
of irregularities in Earth's rotation.
 
CALENDAR SYSTEM

  Mixed calendar mode was active such that calendar dates after AD 1582-Oct-15
(if any) are in the modern Gregorian system. Dates prior to 1582-Oct-5 (if any)
are in the Julian calendar system, which is automatically extended for dates
prior to its adoption on 45-Jan-1 BC.  The Julian calendar is useful for
matching historical dates. The Gregorian calendar more accurately corresponds
to the Earth's orbital motion and seasons. A "Gregorian-only" calendar mode is
available if such physical events are the primary interest.

REFERENCE FRAME AND COORDINATES

  Ecliptic at the standard reference epoch

    Reference epoch: J2000.0
    X-Y plane: adopted Earth orbital plane at the reference epoch
               Note: IAU76 obliquity of 84381.448 arcseconds wrt ICRF X-Y plane
    X-axis   : ICRF
    Z-axis   : perpendicular to the X-Y plane in the directional (+ or -) sense
               of Earth's north pole at the reference epoch.

  Symbol meaning:

    JDTDB    Julian Day Number, Barycentric Dynamical Time
      X      X-component of position vector (km)
      Y      Y-component of position vector (km)
      Z      Z-component of position vector (km)
      VX     X-component of velocity vector (km/sec)                           
      VY     Y-component of velocity vector (km/sec)                           
      VZ     Z-component of velocity vector (km/sec)                           

ABERRATIONS AND CORRECTIONS

 Geometric state vectors have NO corrections or aberrations applied.

Computations by ...

    Solar System Dynamics Group, Horizons On-Line Ephemeris System
    4800 Oak Grove Drive, Jet Propulsion Laboratory
    Pasadena, CA  91109   USA

    General site: https://ssd.jpl.nasa.gov/
    Mailing list: https://ssd.jpl.nasa.gov/email_list.html
    System news : https://ssd.jpl.nasa.gov/horizons/news.html
    User Guide  : https://ssd.jpl.nasa.gov/horizons/manual.html
    Connect     : browser        https://ssd.jpl.nasa.gov/horizons/app.html#/x
                  API            https://ssd-api.jpl.nasa.gov/doc/horizons.html
                  command-line   telnet ssd.jpl.nasa.gov 6775
                  e-mail/batch   https://ssd.jpl.nasa.gov/ftp/ssd/hrzn_batch.txt
                  scripts        https://ssd.jpl.nasa.gov/ftp/ssd/SCRIPTS
    Author      : Jon.D.Giorgini@jpl.nasa.gov
*******************************************************************************
